     2.100          NAVIGATION                              RINEX VERSION / TYPE
fic2rin                                 11/23/2015 00:06:07 PGM / RUN BY / DATE
                                                            END OF HEADER
29 15 11 22 21 59 44.0  .645485240966D-03  .147792889038D-11  .000000000000D+00
     .210000000000D+02  .350000000000D+02  .415088718683D-08 -.104566100933D+01
     .193528831005D-05  .876667210832D-03  .998936593533D-05  .515365743065D+04
     .791840000000D+05 -.745058059692D-08  .100676799216D+00 -.260770320892D-07
     .975600329373D+00  .194843750000D+03 -.551814503278D+00 -.787282793488D-08
     .628240454451D-09  .100000000000D+01  .187200000000D+04  .000000000000D+00
     .240000000000D+01  .000000000000D+00 -.102445483208D-07  .210000000000D+02
     .778860000000D+05  .400000000000D+01
31 15 11 22 21 59 44.0  .294209923595D-03 -.159161572810D-11  .000000000000D+00
     .140000000000D+02 -.131562500000D+02  .472305387701D-08 -.127103741375D+00
    -.786036252975D-06  .828022649512D-02  .209733843803D-05  .515363367081D+04
     .791840000000D+05  .115483999252D-06 -.201537199624D+01 -.968575477600D-07
     .973112761527D+00  .346750000000D+03 -.496797666783D+00 -.856857120110D-08
    -.196436753808D-09  .100000000000D+01  .187200000000D+04  .000000000000D+00
     .240000000000D+01  .000000000000D+00 -.135041773319D-07  .140000000000D+02
     .789360000000D+05  .400000000000D+01
 5 15 11 22 23 59 44.0 -.172069296241D-03  .375166564481D-11  .000000000000D+00
     .160000000000D+02 -.200000000000D+02  .477841332581D-08 -.171713178381D+01
    -.131502747536D-05  .453760218807D-02  .112634152174D-04  .515368487930D+04
     .863840000000D+05  .577419996262D-07  .213152250862D+01 -.428408384323D-07
     .946232500553D+00  .151187500000D+03  .474121337903D+00 -.806569311135D-08
    -.350371737246D-09  .100000000000D+01  .187200000000D+04  .000000000000D+00
     .240000000000D+01  .000000000000D+00 -.107102096081D-07  .160000000000D+02
     .792060000000D+05  .400000000000D+01
17 15 11 22 23 59 44.0 -.194692518562D-03 -.909494701773D-12  .000000000000D+00
     .400000000000D+01  .361250000000D+02  .408874174108D-08 -.252027440181D+01
     .192038714886D-05  .106707975501D-01  .957772135735D-05  .515359715843D+04
     .863840000000D+05  .596046447754D-07  .910901346583D-01 -.558793544769D-07
     .974705381923D+00  .202343750000D+03 -.199335946644D+01 -.765246161289D-08
     .597882047044D-09  .100000000000D+01  .187200000000D+04  .000000000000D+00
     .240000000000D+01  .000000000000D+00 -.107102096081D-07  .400000000000D+01
     .792060000000D+05  .400000000000D+01
29 15 11 22 23 59 44.0  .645495485514D-03  .147792889038D-11  .000000000000D+00
     .220000000000D+02  .369062500000D+02  .421767568312D-08  .466938288711D-02
     .187568366528D-05  .876523321494D-03  .101681798697D-04  .515365731812D+04
     .863840000000D+05  .689178705215D-07  .100620313023D+00 -.149011611938D-07
     .975604560132D+00  .192906250000D+03 -.551956859836D+00 -.791247244338D-08
     .575738267524D-09  .100000000000D+01  .187200000000D+04  .000000000000D+00
     .240000000000D+01  .000000000000D+00 -.102445483208D-07  .220000000000D+02
     .792060000000D+05  .400000000000D+01
31 15 11 22 23 59 44.0  .294198747724D-03 -.159161572810D-11  .000000000000D+00
     .150000000000D+02 -.129062500000D+02  .475948396590D-08  .923051406419D+00
    -.793486833572D-06  .828097946942D-02  .149384140968D-05  .515363530731D+04
     .863840000000D+05  .150874257088D-06 -.201543364800D+01  .558793544769D-08
     .973111319090D+00  .353031250000D+03 -.496746233509D+00 -.855499920720D-08
    -.221080637467D-09  .100000000000D+01  .187200000000D+04  .000000000000D+00
     .240000000000D+01  .000000000000D+00 -.135041773319D-07  .150000000000D+02
     .792060000000D+05  .400000000000D+01
 1 15 11 23  0  0  0.0  .504124909639D-05  .795807864051D-12  .000000000000D+00
     .130000000000D+02 -.195000000000D+02  .495056335369D-08  .157197435182D+01
    -.108033418655D-05  .483472237829D-02  .419467687607D-05  .515364937782D+04
     .864000000000D+05 -.130385160446D-07  .109960080311D+01  .633299350739D-07
     .962820729074D+00  .299312500000D+03  .496739028637D+00 -.842392231875D-08
    -.496449250533D-10  .100000000000D+01  .187200000000D+04  .000000000000D+00
     .240000000000D+01  .000000000000D+00  .512227416039D-08  .130000000000D+02
     .792060000000D+05  .400000000000D+01
 2 15 11 23  0  0  0.0  .596427358687D-03  .909494701773D-12  .000000000000D+00
     .530000000000D+02 -.232500000000D+02  .531486424257D-08  .214710851537D+01
    -.134669244289D-05  .149933155626D-01  .451132655144D-05  .515366262436D+04
     .864000000000D+05 -.167638063431D-06  .105810430817D+01 -.353902578354D-06
     .941540796462D+00  .281281250000D+03 -.221143871699D+01 -.847749597888D-08
     .364300888880D-10  .100000000000D+01  .187200000000D+04  .000000000000D+00
     .240000000000D+01  .000000000000D+00 -.204890966415D-07  .530000000000D+02
     .792060000000D+05  .400000000000D+01
 3 15 11 23  0  0  0.0  .109500251710D-04 -.397903932026D-11  .000000000000D+00
     .103000000000D+03 -.335625000000D+02  .451125934063D-08 -.223276469787D+01
    -.181980431080D-05  .420885742642D-03  .115763396025D-04  .515355868530D+04
     .864000000000D+05 -.111758708954D-07  .214092139740D+01  .391155481339D-07
     .959096184994D+00  .159468750000D+03 -.301666765805D+01 -.792818738368D-08
    -.371444043564D-09  .100000000000D+01  .187200000000D+04  .000000000000D+00
     .340000000000D+01  .000000000000D+00  .186264514923D-08  .103000000000D+03
     .792060000000D+05  .400000000000D+01
 6 15 11 23  0  0  0.0  .998117029667D-04  .659383658785D-11  .000000000000D+00
     .610000000000D+02 -.230312500000D+02  .483877298289D-08 -.250439961503D+01
    -.111013650894D-05  .226716976613D-03  .461190938950D-05  .515357713699D+04
     .864000000000D+05 -.204890966415D-07  .109113769328D+01 -.279396772385D-07
     .962684341221D+00  .289937500000D+03  .299660441978D+01 -.833034699239D-08
    -.142863093678D-10  .100000000000D+01  .187200000000D+04  .000000000000D+00
     .240000000000D+01  .000000000000D+00  .419095158577D-08  .610000000000D+02
     .792060000000D+05  .400000000000D+01
 7 15 11 23  0  0  0.0  .479592476040D-03 -.113686837722D-11  .000000000000D+00
     .400000000000D+01 -.821875000000D+01  .485163066132D-08  .912545016969D+00
    -.301748514175D-06  .900813285261D-02  .212714076042D-05  .515368778992D+04
     .864000000000D+05  .409781932831D-07 -.202396784833D+01  .521540641785D-07
     .968259242604D+00  .341125000000D+03 -.268008027830D+01 -.865393189957D-08
    -.243938732456D-09  .100000000000D+01  .187200000000D+04  .000000000000D+00
     .240000000000D+01  .000000000000D+00 -.111758708954D-07  .400000000000D+01
     .792060000000D+05  .400000000000D+01
 8 15 11 23  0  0  0.0 -.135032460093D-04 -.147792889038D-11  .000000000000D+00
     .770000000000D+02  .313750000000D+02  .442947021950D-08 -.113475138764D+01
     .172480940819D-05  .153989181854D-02  .103153288364D-04  .515360721970D+04
     .864000000000D+05  .167638063431D-07  .410759952315D-01 -.931322574615D-08
     .961562695597D+00  .182625000000D+03 -.164867160353D+01 -.801890544817D-08
     .556094592143D-09  .100000000000D+01  .187200000000D+04  .000000000000D+00
     .240000000000D+01  .000000000000D+00  .465661287308D-08  .770000000000D+02
     .792060000000D+05  .400000000000D+01
 9 15 11 23  0  0  0.0  .148247927427D-04  .648014975013D-11  .000000000000D+00
     .760000000000D+02  .109343750000D+03  .466340853540D-08 -.278762935901D+01
     .572949647903D-05  .428903033026D-03  .885687768459D-05  .515369626808D+04
     .864000000000D+05 -.316649675369D-07 -.310132189675D+01  .614672899246D-07
     .956633232208D+00  .208062500000D+03  .212459529454D+01 -.819284126472D-08
     .344657213499D-09  .100000000000D+01  .187200000000D+04  .000000000000D+00
     .240000000000D+01  .000000000000D+00  .931322574615D-09  .760000000000D+02
     .792060000000D+05  .400000000000D+01
10 15 11 23  0  0  0.0  .260029919446D-04  .122781784739D-10  .000000000000D+00
     .180000000000D+02 -.211875000000D+02  .437053919336D-08  .465383209719D+00
    -.113621354103D-05  .849627540447D-03  .125039368868D-04  .516647450066D+04
     .864000000000D+05  .167638063431D-07  .213664121070D+01 -.745058059692D-08
     .959374432013D+00  .135187500000D+03 -.293485997414D+01 -.781675417062D-08
    -.462162108050D-09  .100000000000D+01  .187200000000D+04  .000000000000D+00
     .240000000000D+01  .630000000000D+02  .325962901115D-08  .180000000000D+02
     .792060000000D+05  .400000000000D+01
11 15 11 23  0  0  0.0 -.617688987404D-03 -.216004991671D-11  .000000000000D+00
     .360000000000D+02  .252500000000D+02  .660991818677D-08  .101656531838D+01
     .110082328320D-05  .162857854739D-01  .439584255219D-05  .515363077736D+04
     .864000000000D+05 -.264495611191D-06  .735823175886D+00 -.115483999252D-06
     .894640934597D+00  .262687500000D+03  .148273029104D+01 -.945467953964D-08
     .284654714154D-09  .100000000000D+01  .187200000000D+04  .000000000000D+00
     .240000000000D+01  .000000000000D+00 -.121071934700D-07  .360000000000D+02
     .792060000000D+05  .400000000000D+01
12 15 11 23  0  0  0.0  .347587279975D-03  .306954461848D-11  .000000000000D+00
     .380000000000D+02 -.854062500000D+02  .366408119512D-08  .496765958033D+00
    -.449083745480D-05  .555865676142D-02  .114664435387D-04  .515358131790D+04
     .864000000000D+05 -.558793544769D-08 -.951241584722D+00  .106170773506D-06
     .990219160020D+00  .172750000000D+03  .639132917674D+00 -.775818030221D-08
    -.357157734196D-09  .100000000000D+01  .187200000000D+04  .000000000000D+00
     .240000000000D+01  .000000000000D+00 -.125728547573D-07  .380000000000D+02
     .792060000000D+05  .400000000000D+01
